OBJECT_NAME,OBJECT_ID,EPOCH,MEAN_MOTION,ECCENTRICITY,INCLINATION,RA_OF_ASC_NODE,ARG_OF_PERICENTER,MEAN_ANOMALY,EPHEMERIS_TYPE,CLASSIFICATION_TYPE,NORAD_CAT_ID,ELEMENT_SET_NO,REV_AT_EPOCH,BSTAR,MEAN_MOTION_DOT,MEAN_MOTION_DDOT
ONEWEB-0367,2021-090Q,2026-07-13T18:05:27.428352,13.20772746,.0002086,87.9189,269.1476,112.3395,247.7959,0,U,49293,999,23333,.32108E-4,.26E-6,0
ONEWEB-0368,2021-090R,2026-07-13T17:27:53.991072,13.20771242,.0001588,87.9177,269.1596,118.8060,241.3232,0,U,49294,999,23448,-.63606E-4,-.13E-6,0
ONEWEB-0369,2021-090S,2026-07-13T19:02:52.488384,13.19726417,.0001985,87.9183,299.6754,103.8655,256.2699,0,U,49295,999,22992,-.69544E-4,-.15E-6,0
ONEWEB-0370,2021-090T,2026-07-13T18:18:48.124800,13.20771808,.000238,87.9182,269.1454,92.4168,267.7238,0,U,49296,999,23337,-.38871E-4,-.3E-7,0
ONEWEB-0371,2021-090U,2026-07-13T19:14:14.589600,13.19724928,.0002074,87.9191,299.6684,102.2680,257.8685,0,U,49297,999,22996,-.2094E-4,.5E-7,0
ONEWEB-0372,2021-090V,2026-07-13T18:04:02.106624,13.20769542,.0002114,87.9185,269.1488,101.9071,258.2299,0,U,49298,999,23334,-.78277E-4,-.19E-6,0
ONEWEB-0373,2021-090W,2026-07-13T16:51:30.727872,13.20773014,.0002074,87.9175,269.1597,97.5120,262.6249,0,U,49299,999,23452,.31274E-4,.26E-6,0
ONEWEB-0374,2021-090X,2026-07-13T18:14:19.876992,13.14503146,.0001565,87.8969,284.4042,89.2956,270.8353,0,U,49300,999,23105,-.13231E-3,-.36E-6,0
ONEWEB-0375,2021-090Y,2026-07-13T16:34:32.827008,13.20772985,.0001716,87.9187,269.1530,85.4330,274.6999,0,U,49301,999,23402,.14161E-3,.71E-6,0
ONEWEB-0376,2021-090Z,2026-07-13T19:11:57.535008,13.19726269,.0002032,87.9191,299.6684,106.5733,253.5623,0,U,49302,999,22996,.22708E-3,.104E-5,0
ONEWEB-0377,2021-090AA,2026-07-13T16:15:21.259296,13.20773362,.000195,87.9191,269.1577,94.4778,265.6578,0,U,49303,999,23401,.87461E-4,.49E-6,0
ONEWEB-0378,2021-090AB,2026-07-13T14:55:22.350144,13.20771778,.0001917,87.9181,269.1728,99.2556,260.8794,0,U,49304,999,23327,.81644E-4,.46E-6,0
ONEWEB-0379,2021-090AC,2026-07-13T16:17:52.688256,13.14503025,.0001902,87.8976,284.4298,99.3103,260.8242,0,U,49305,999,23104,-.5746E-3,-.2E-5,0
ONEWEB-0380,2021-090AD,2026-07-13T19:07:25.559040,13.19726037,.0002014,87.9183,299.6726,95.9762,264.1600,0,U,49306,999,22993,-.44405E-4,-.5E-7,0
ONEWEB-0381,2021-090AE,2026-07-13T17:59:22.490304,13.20773188,.0001837,87.9190,269.1479,92.9627,267.1717,0,U,49307,999,23333,-.57437E-4,-.1E-6,0
ONEWEB-0382,2021-090AF,2026-07-13T15:50:55.540320,13.20771708,.0001771,87.9185,269.1600,99.4421,260.6913,0,U,49308,999,23331,-.72723E-4,-.17E-6,0
ONEWEB-0383,2021-090AG,2026-07-13T17:58:21.175680,13.14502650,.0001843,87.8970,284.4088,102.1194,258.0143,0,U,49309,999,23108,-.39813E-3,-.135E-5,0
ONEWEB-0384,2021-090AH,2026-07-13T17:22:26.790816,13.20814229,.0001591,87.9187,269.1910,98.2507,261.8807,0,U,49310,999,23333,.96324E-4,.52E-6,0
ONEWEB-0385,2021-090AJ,2026-07-13T17:30:17.461728,13.20765687,.0001854,87.9163,269.1545,133.5385,226.5903,0,U,49311,999,23330,.17881E-2,.74E-5,0
ONEWEB-0386,2021-090AK,2026-07-13T17:54:32.112000,13.20772657,.0001765,87.9191,269.1397,98.3885,261.7448,0,U,49312,999,23332,.18619E-3,.89E-6,0
ONEWEB-0387,2021-090AL,2026-07-13T17:32:43.224576,13.20760952,.0002026,87.9174,269.1618,93.1219,267.0146,0,U,49313,999,23332,.40471E-2,.1659E-4,0
ONEWEB-0388,2021-090AM,2026-07-13T19:00:35.917632,13.19726142,.0001859,87.9183,299.6719,100.7385,259.3957,0,U,49314,999,22992,.12408E-3,.63E-6,0
ONEWEB-0389,2021-132A,2026-07-13T20:27:19.018080,13.17650418,.0001743,87.9144,0.5626,82.0478,278.0852,0,U,50469,999,22159,-.59695E-4,-.1E-6,0
ONEWEB-0390,2021-132B,2026-07-13T20:29:44.791296,13.17650576,.000209,87.9145,0.5631,91.3514,268.7857,0,U,50470,999,22159,-.22395E-4,.4E-7,0
ONEWEB-0391,2021-132C,2026-07-13T11:25:26.129568,13.17651392,.00021045,87.9145,0.6485,69.8629,290.2729,0,U,50471,999,22154,.27071278E-3,.118E-5,0
ONEWEB-0392,2021-132D,2026-07-13T12:09:10.910592,13.17650875,.00018365,87.9152,0.6128,80.8438,279.2901,0,U,50472,999,22158,-.10520121E-3,-.28E-6,0
ONEWEB-0393,2021-132E,2026-07-13T11:33:57.259872,13.17648155,.00018311,87.9142,0.6327,86.5870,273.5471,0,U,50473,999,22157,.491747E-4,.32E-6,0
ONEWEB-0394,2021-132F,2026-07-13T21:10:49.137024,13.18684364,.0001767,87.9196,330.1339,97.3976,262.7357,0,U,50474,999,22511,-.14296E-3,-.43E-6,0
ONEWEB-0395,2021-132G,2026-07-13T11:44:47.126976,13.11417833,.00020202,87.8879,15.8289,84.5938,275.5420,0,U,50475,999,21916,.14636989E-2,.531E-5,0
ONEWEB-0396,2021-132H,2026-07-13T19:11:51.455040,13.18686105,.0001746,87.9193,330.1636,95.3997,264.7334,0,U,50476,999,22514,-.28206E-4,.2E-7,0
