ONEWEB-0367             
1 49293U 21090Q   26194.75378968  .00000026  00000+0  32108-4 0  9999
2 49293  87.9189 269.1476 0002086 112.3395 247.7959 13.20772746233332
ONEWEB-0368             
1 49294U 21090R   26194.72770823 -.00000013  00000+0 -63606-4 0  9998
2 49294  87.9177 269.1596 0001588 118.8060 241.3232 13.20771242234480
ONEWEB-0369             
1 49295U 21090S   26194.79366306 -.00000015  00000+0 -69544-4 0  9992
2 49295  87.9183 299.6754 0001985 103.8655 256.2699 13.19726417229924
ONEWEB-0370             
1 49296U 21090T   26194.76305700 -.00000003  00000+0 -38871-4 0  9997
2 49296  87.9182 269.1454 0002380  92.4168 267.7238 13.20771808233371
ONEWEB-0371             
1 49297U 21090U   26194.80155775  .00000005  00000+0 -20940-4 0  9997
2 49297  87.9191 299.6684 0002074 102.2680 257.8685 13.19724928229969
ONEWEB-0372             
1 49298U 21090V   26194.75280216 -.00000019  00000+0 -78277-4 0  9993
2 49298  87.9185 269.1488 0002114 101.9071 258.2299 13.20769542233348
ONEWEB-0373             
1 49299U 21090W   26194.70243898  .00000026  00000+0  31274-4 0  9996
2 49299  87.9175 269.1597 0002074  97.5120 262.6249 13.20773014234523
ONEWEB-0374             
1 49300U 21090X   26194.75995228 -.00000036  00000+0 -13231-3 0  9990
2 49300  87.8969 284.4042 0001565  89.2956 270.8353 13.14503146231052
ONEWEB-0375             
1 49301U 21090Y   26194.69065772  .00000071  00000+0  14161-3 0  9996
2 49301  87.9187 269.1530 0001716  85.4330 274.6999 13.20772985234024
ONEWEB-0376             
1 49302U 21090Z   26194.79997147  .00000104  00000+0  22708-3 0  9991
2 49302  87.9191 299.6684 0002032 106.5733 253.5623 13.19726269229961
ONEWEB-0377             
1 49303U 21090AA  26194.67732939  .00000049  00000+0  87461-4 0  9991
2 49303  87.9191 269.1577 0001950  94.4778 265.6578 13.20773362234010
ONEWEB-0378             
1 49304U 21090AB  26194.62178646  .00000046  00000+0  81644-4 0  9990
2 49304  87.9181 269.1728 0001917  99.2556 260.8794 13.20771778233271
ONEWEB-0379             
1 49305U 21090AC  26194.67908204 -.00000200  00000+0 -57460-3 0  9999
2 49305  87.8976 284.4298 0001902  99.3103 260.8242 13.14503025231040
ONEWEB-0380             
1 49306U 21090AD  26194.79682360 -.00000005  00000+0 -44405-4 0  9994
2 49306  87.9183 299.6726 0002014  95.9762 264.1600 13.19726037229939
ONEWEB-0381             
1 49307U 21090AE  26194.74956586 -.00000010  00000+0 -57437-4 0  9999
2 49307  87.9190 269.1479 0001837  92.9627 267.1717 13.20773188233336
ONEWEB-0382             
1 49308U 21090AF  26194.66036505 -.00000017  00000+0 -72723-4 0  9993
2 49308  87.9185 269.1600 0001771  99.4421 260.6913 13.20771708233318
ONEWEB-0383             
1 49309U 21090AG  26194.74885620 -.00000135  00000+0 -39813-3 0  9996
2 49309  87.8970 284.4088 0001843 102.1194 258.0143 13.14502650231088
ONEWEB-0384             
1 49310U 21090AH  26194.72392119  .00000052  00000+0  96324-4 0  9999
2 49310  87.9187 269.1910 0001591  98.2507 261.8807 13.20814229233332
ONEWEB-0385             
1 49311U 21090AJ  26194.72936877  .00000740  00000+0  17881-2 0  9998
2 49311  87.9163 269.1545 0001854 133.5385 226.5903 13.20765687233305
ONEWEB-0386             
1 49312U 21090AK  26194.74620500  .00000089  00000+0  18619-3 0  9991
2 49312  87.9191 269.1397 0001765  98.3885 261.7448 13.20772657233328
ONEWEB-0387             
1 49313U 21090AL  26194.73105584  .00001659  00000+0  40471-2 0  9995
2 49313  87.9174 269.1618 0002026  93.1219 267.0146 13.20760952233320
ONEWEB-0388             
1 49314U 21090AM  26194.79208238  .00000063  00000+0  12408-3 0  9990
2 49314  87.9183 299.6719 0001859 100.7385 259.3957 13.19726142229929
ONEWEB-0389             
1 50469U 21132A   26194.85230345 -.00000010  00000+0 -59695-4 0  9995
2 50469  87.9144   0.5626 0001743  82.0478 278.0852 13.17650418221599
ONEWEB-0390             
1 50470U 21132B   26194.85399064  .00000004  00000+0 -22395-4 0  9990
2 50470  87.9145   0.5631 0002090  91.3514 268.7857 13.17650576221594
ONEWEB-0391             
1 50471U 21132C   26194.47599687  .00000118  00000+0  27071-3 0  9992
2 50471  87.9145   0.6485 0002104  69.8629 290.2729 13.17651392221546
ONEWEB-0392             
1 50472U 21132D   26194.50637628 -.00000028  00000+0 -10520-3 0  9998
2 50472  87.9152   0.6128 0001836  80.8438 279.2901 13.17650875221589
ONEWEB-0393             
1 50473U 21132E   26194.48191273  .00000032  00000+0  49175-4 0  9999
2 50473  87.9142   0.6327 0001831  86.5870 273.5471 13.17648155221574
ONEWEB-0394             
1 50474U 21132F   26194.88251316 -.00000043  00000+0 -14296-3 0  9998
2 50474  87.9196 330.1339 0001767  97.3976 262.7357 13.18684364225113
ONEWEB-0395             
1 50475U 21132G   26194.48943434  .00000531  00000+0  14637-2 0  9992
2 50475  87.8879  15.8289 0002020  84.5938 275.5420 13.11417833219160
ONEWEB-0396             
1 50476U 21132H   26194.79990110  .00000002  00000+0 -28206-4 0  9993
2 50476  87.9193 330.1636 0001746  95.3997 264.7334 13.18686105225145
